[{"OBJECT_NAME":"COSMOS 2523","OBJECT_ID":"2017-037E","EPOCH":"2026-03-09T23:01:03.762912","MEAN_MOTION":14.95066265,"ECCENTRICITY":0.0066686,"INCLINATION":97.5062,"RA_OF_ASC_NODE":86.2978,"ARG_OF_PERICENTER":201.8356,"MEAN_ANOMALY":158.0021,"EPHEMERIS_TYPE":0,"CLASSIFICATION_TYPE":"U","NORAD_CAT_ID":42986,"ELEMENT_SET_NO":999,"REV_AT_EPOCH":45413,"BSTAR":0.00015362789,"MEAN_MOTION_DOT":1.699e-5,"MEAN_MOTION_DDOT":0},{"OBJECT_NAME":"CZ-6A DEB","OBJECT_ID":"2024-140QU","EPOCH":"2026-03-09T14:10:38.390304","MEAN_MOTION":14.74729223,"ECCENTRICITY":0.0073268,"INCLINATION":88.9195,"RA_OF_ASC_NODE":275.5832,"ARG_OF_PERICENTER":187.6148,"MEAN_ANOMALY":172.3967,"EPHEMERIS_TYPE":0,"CLASSIFICATION_TYPE":"U","NORAD_CAT_ID":61150,"ELEMENT_SET_NO":999,"REV_AT_EPOCH":8264,"BSTAR":0.0023527,"MEAN_MOTION_DOT":0.0001646,"MEAN_MOTION_DDOT":0}]
